[{"OBJECT_NAME":"IRS-P6 (RESOURCESAT-1)","OBJECT_ID":"2003-046A","EPOCH":"2026-03-10T00:23:01.313952","MEAN_MOTION":14.36117534,"ECCENTRICITY":0.00629144,"INCLINATION":98.2042,"RA_OF_ASC_NODE":110.3286,"ARG_OF_PERICENTER":280.126,"MEAN_ANOMALY":140.7181,"EPHEMERIS_TYPE":0,"CLASSIFICATION_TYPE":"U","NORAD_CAT_ID":28051,"ELEMENT_SET_NO":999,"REV_AT_EPOCH":16629,"BSTAR":9.8466414e-5,"MEAN_MOTION_DOT":2.52e-6,"MEAN_MOTION_DDOT":0},{"OBJECT_NAME":"FENGYUN 1C DEB","OBJECT_ID":"1999-025BZE","EPOCH":"2026-03-09T10:10:19.409664","MEAN_MOTION":14.66101352,"ECCENTRICITY":0.01121502,"INCLINATION":98.9608,"RA_OF_ASC_NODE":234.6887,"ARG_OF_PERICENTER":171.648,"MEAN_ANOMALY":188.6623,"EPHEMERIS_TYPE":0,"CLASSIFICATION_TYPE":"U","NORAD_CAT_ID":31563,"ELEMENT_SET_NO":999,"REV_AT_EPOCH":99814,"BSTAR":0.0011242552,"MEAN_MOTION_DOT":6.722e-5,"MEAN_MOTION_DDOT":0}]
